CCSDS_OMM_VERS = 2.0
CREATION_DATE  = 
ORIGINATOR     = 

OBJECT_NAME    = ERS-1
OBJECT_ID      = 1991-050A
CENTER_NAME    = EARTH
REF_FRAME      = TEME
TIME_SYSTEM    = UTC
MEAN_ELEMENT_THEORY = SGP/SGP4

EPOCH          = 2026-03-11T23:47:19.244544
MEAN_MOTION    = 14.39451255
ECCENTRICITY   = .00317479
INCLINATION    = 98.7879
RA_OF_ASC_NODE = 89.2836
ARG_OF_PERICENTER = 193.5556
MEAN_ANOMALY   = 166.4781

EPHEMERIS_TYPE = 0
CLASSIFICATION_TYPE = U
NORAD_CAT_ID   = 21574
ELEMENT_SET_NO = 999
REV_AT_EPOCH   = 81606
BSTAR          = .12769326E-3
MEAN_MOTION_DOT = .353E-5
MEAN_MOTION_DDOT = 0

CCSDS_OMM_VERS = 2.0
CREATION_DATE  = 
ORIGINATOR     = 

OBJECT_NAME    = ARIANE 40 R/B
OBJECT_ID      = 1991-050F
CENTER_NAME    = EARTH
REF_FRAME      = TEME
TIME_SYSTEM    = UTC
MEAN_ELEMENT_THEORY = SGP/SGP4

EPOCH          = 2026-03-11T18:13:22.611072
MEAN_MOTION    = 14.42895234
ECCENTRICITY   = .00042619
INCLINATION    = 98.2007
RA_OF_ASC_NODE = 122.9179
ARG_OF_PERICENTER = 76.6440
MEAN_ANOMALY   = 283.5226

EPHEMERIS_TYPE = 0
CLASSIFICATION_TYPE = U
NORAD_CAT_ID   = 21610
ELEMENT_SET_NO = 999
REV_AT_EPOCH   = 81929
BSTAR          = .11407383E-3
MEAN_MOTION_DOT = .339E-5
MEAN_MOTION_DDOT = 0

CCSDS_OMM_VERS = 2.0
CREATION_DATE  = 
ORIGINATOR     = 

OBJECT_NAME    = INTERCOSMOS 25
OBJECT_ID      = 1991-086A
CENTER_NAME    = EARTH
REF_FRAME      = TEME
TIME_SYSTEM    = UTC
MEAN_ELEMENT_THEORY = SGP/SGP4

EPOCH          = 2026-03-11T15:20:10.579776
MEAN_MOTION    = 12.12005735
ECCENTRICITY   = .14869422
INCLINATION    = 82.6045
RA_OF_ASC_NODE = 308.8303
ARG_OF_PERICENTER = 112.7337
MEAN_ANOMALY   = 263.7508

EPHEMERIS_TYPE = 0
CLASSIFICATION_TYPE = U
NORAD_CAT_ID   = 21819
ELEMENT_SET_NO = 999
REV_AT_EPOCH   = 49692
BSTAR          = .35302177E-3
MEAN_MOTION_DOT = .1837E-4
MEAN_MOTION_DDOT = 0

CCSDS_OMM_VERS = 2.0
CREATION_DATE  = 
ORIGINATOR     = 

OBJECT_NAME    = SL-8 R/B
OBJECT_ID      = 1992-008B
CENTER_NAME    = EARTH
REF_FRAME      = TEME
TIME_SYSTEM    = UTC
MEAN_ELEMENT_THEORY = SGP/SGP4

EPOCH          = 2026-03-11T21:55:22.276992
MEAN_MOTION    = 13.75969825
ECCENTRICITY   = .00356271
INCLINATION    = 82.9222
RA_OF_ASC_NODE = 266.1237
ARG_OF_PERICENTER = 127.3162
MEAN_ANOMALY   = 343.9815

EPHEMERIS_TYPE = 0
CLASSIFICATION_TYPE = U
NORAD_CAT_ID   = 21876
ELEMENT_SET_NO = 999
REV_AT_EPOCH   = 70972
BSTAR          = -.423592E-6
MEAN_MOTION_DOT = .15E-6
MEAN_MOTION_DDOT = 0

CCSDS_OMM_VERS = 2.0
CREATION_DATE  = 
ORIGINATOR     = 

OBJECT_NAME    = SL-8 R/B
OBJECT_ID      = 1992-020B
CENTER_NAME    = EARTH
REF_FRAME      = TEME
TIME_SYSTEM    = UTC
MEAN_ELEMENT_THEORY = SGP/SGP4

EPOCH          = 2026-03-11T17:45:43.228224
MEAN_MOTION    = 13.75549784
ECCENTRICITY   = .00276417
INCLINATION    = 82.9333
RA_OF_ASC_NODE = 152.2393
ARG_OF_PERICENTER = 292.8296
MEAN_ANOMALY   = 183.5400

EPHEMERIS_TYPE = 0
CLASSIFICATION_TYPE = U
NORAD_CAT_ID   = 21938
ELEMENT_SET_NO = 999
REV_AT_EPOCH   = 70141
BSTAR          = .57498483E-4
MEAN_MOTION_DOT = .7E-6
MEAN_MOTION_DDOT = 0

CCSDS_OMM_VERS = 2.0
CREATION_DATE  = 
ORIGINATOR     = 

OBJECT_NAME    = USA 81
OBJECT_ID      = 1992-023A
CENTER_NAME    = EARTH
REF_FRAME      = TEME
TIME_SYSTEM    = UTC
MEAN_ELEMENT_THEORY = SGP/SGP4

EPOCH          = 2026-03-11T14:45:20.562048
MEAN_MOTION    = 14.32368672
ECCENTRICITY   = .00023974
INCLINATION    = 85.0082
RA_OF_ASC_NODE = 130.3307
ARG_OF_PERICENTER = 76.5141
MEAN_ANOMALY   = 283.6318

EPHEMERIS_TYPE = 0
CLASSIFICATION_TYPE = U
NORAD_CAT_ID   = 21949
ELEMENT_SET_NO = 999
REV_AT_EPOCH   = 9506
BSTAR          = .61305792E-4
MEAN_MOTION_DOT = .186E-5
MEAN_MOTION_DDOT = 0

CCSDS_OMM_VERS = 2.0
CREATION_DATE  = 
ORIGINATOR     = 

OBJECT_NAME    = COSMOS 2219
OBJECT_ID      = 1992-076A
CENTER_NAME    = EARTH
REF_FRAME      = TEME
TIME_SYSTEM    = UTC
MEAN_ELEMENT_THEORY = SGP/SGP4

EPOCH          = 2026-03-11T22:13:34.442112
MEAN_MOTION    = 14.14093189
ECCENTRICITY   = .0018869
INCLINATION    = 71.0639
RA_OF_ASC_NODE = 13.3926
ARG_OF_PERICENTER = 203.9789
MEAN_ANOMALY   = 156.0457

EPHEMERIS_TYPE = 0
CLASSIFICATION_TYPE = U
NORAD_CAT_ID   = 22219
ELEMENT_SET_NO = 999
REV_AT_EPOCH   = 71869
BSTAR          = .53319975E-4
MEAN_MOTION_DOT = .55E-6
MEAN_MOTION_DDOT = 0

CCSDS_OMM_VERS = 2.0
CREATION_DATE  = 
ORIGINATOR     = 

OBJECT_NAME    = SL-16 R/B
OBJECT_ID      = 1992-076B
CENTER_NAME    = EARTH
REF_FRAME      = TEME
TIME_SYSTEM    = UTC
MEAN_ELEMENT_THEORY = SGP/SGP4

EPOCH          = 2026-03-11T18:05:43.293120
MEAN_MOTION    = 14.16859282
ECCENTRICITY   = .00104678
INCLINATION    = 71.0009
RA_OF_ASC_NODE = 184.0257
ARG_OF_PERICENTER = 92.6138
MEAN_ANOMALY   = 19.5545

EPHEMERIS_TYPE = 0
CLASSIFICATION_TYPE = U
NORAD_CAT_ID   = 22220
ELEMENT_SET_NO = 999
REV_AT_EPOCH   = 72212
BSTAR          = -.52500166E-4
MEAN_MOTION_DOT = -.153E-5
MEAN_MOTION_DDOT = 0

CCSDS_OMM_VERS = 2.0
CREATION_DATE  = 
ORIGINATOR     = 

OBJECT_NAME    = COSMOS 2221
OBJECT_ID      = 1992-080A
CENTER_NAME    = EARTH
REF_FRAME      = TEME
TIME_SYSTEM    = UTC
MEAN_ELEMENT_THEORY = SGP/SGP4

EPOCH          = 2026-03-11T20:15:50.057568
MEAN_MOTION    = 14.96209562
ECCENTRICITY   = .00142366
INCLINATION    = 82.5012
RA_OF_ASC_NODE = 277.0167
ARG_OF_PERICENTER = 179.6150
MEAN_ANOMALY   = 180.5086

EPHEMERIS_TYPE = 0
CLASSIFICATION_TYPE = U
NORAD_CAT_ID   = 22236
ELEMENT_SET_NO = 999
REV_AT_EPOCH   = 78111
BSTAR          = .19341156E-3
MEAN_MOTION_DOT = .221E-4
MEAN_MOTION_DDOT = 0

CCSDS_OMM_VERS = 2.0
CREATION_DATE  = 
ORIGINATOR     = 

OBJECT_NAME    = SL-16 R/B
OBJECT_ID      = 1992-093B
CENTER_NAME    = EARTH
REF_FRAME      = TEME
TIME_SYSTEM    = UTC
MEAN_ELEMENT_THEORY = SGP/SGP4

EPOCH          = 2026-03-11T22:19:35.727168
MEAN_MOTION    = 14.15447288
ECCENTRICITY   = .00063843
INCLINATION    = 71.0242
RA_OF_ASC_NODE = 359.5625
ARG_OF_PERICENTER = 291.3355
MEAN_ANOMALY   = 68.7086

EPHEMERIS_TYPE = 0
CLASSIFICATION_TYPE = U
NORAD_CAT_ID   = 22285
ELEMENT_SET_NO = 999
REV_AT_EPOCH   = 71347
BSTAR          = -.61414918E-4
MEAN_MOTION_DOT = -.168E-5
MEAN_MOTION_DDOT = 0

CCSDS_OMM_VERS = 2.0
CREATION_DATE  = 
ORIGINATOR     = 

OBJECT_NAME    = COSMOS 2228
OBJECT_ID      = 1992-094A
CENTER_NAME    = EARTH
REF_FRAME      = TEME
TIME_SYSTEM    = UTC
MEAN_ELEMENT_THEORY = SGP/SGP4

EPOCH          = 2026-03-11T22:13:34.582944
MEAN_MOTION    = 14.97202441
ECCENTRICITY   = .00167
INCLINATION    = 82.5159
RA_OF_ASC_NODE = 235.1687
ARG_OF_PERICENTER = 296.6039
MEAN_ANOMALY   = 63.3472

EPHEMERIS_TYPE = 0
CLASSIFICATION_TYPE = U
NORAD_CAT_ID   = 22286
ELEMENT_SET_NO = 999
REV_AT_EPOCH   = 77639
BSTAR          = .24210517E-3
MEAN_MOTION_DOT = .2832E-4
MEAN_MOTION_DDOT = 0

CCSDS_OMM_VERS = 2.0
CREATION_DATE  = 
ORIGINATOR     = 

OBJECT_NAME    = SL-16 R/B
OBJECT_ID      = 1993-016B
CENTER_NAME    = EARTH
REF_FRAME      = TEME
TIME_SYSTEM    = UTC
MEAN_ELEMENT_THEORY = SGP/SGP4

EPOCH          = 2026-03-11T19:54:34.232832
MEAN_MOTION    = 14.15309235
ECCENTRICITY   = .00119483
INCLINATION    = 71.0077
RA_OF_ASC_NODE = 210.6861
ARG_OF_PERICENTER = 311.1602
MEAN_ANOMALY   = 48.8489

EPHEMERIS_TYPE = 0
CLASSIFICATION_TYPE = U
NORAD_CAT_ID   = 22566
ELEMENT_SET_NO = 999
REV_AT_EPOCH   = 70247
BSTAR          = .32629416E-4
MEAN_MOTION_DOT = .16E-6
MEAN_MOTION_DDOT = 0

