ERS-1                   
1 21574U 91050A   26070.99119496  .00000353  00000+0  12769-3 0  9995
2 21574  98.7879  89.2836 0031747 193.5556 166.4781 14.39451255816064
ARIANE 40 R/B           
1 21610U 91050F   26070.75928948  .00000339  00000+0  11407-3 0  9992
2 21610  98.2007 122.9179 0004261  76.6440 283.5226 14.42895234819298
INTERCOSMOS 25          
1 21819U 91086A   26070.63901134  .00001837  00000+0  35302-3 0  9991
2 21819  82.6045 308.8303 1486942 112.7337 263.7508 12.12005735496928
SL-8 R/B                
1 21876U 92008B   26070.91345228  .00000015  00000+0 -42359-6 0  9997
2 21876  82.9222 266.1237 0035627 127.3162 343.9815 13.75969825709726
SL-8 R/B                
1 21938U 92020B   26070.74008366  .00000070  00000+0  57498-4 0  9998
2 21938  82.9333 152.2393 0027641 292.8296 183.5400 13.75549784701413
USA 81                  
1 21949U 92023A   26070.61482132  .00000186  00000+0  61306-4 0  9997
2 21949  85.0082 130.3307 0002397  76.5141 283.6318 14.32368672 95065
COSMOS 2219             
1 22219U 92076A   26070.92609308  .00000055  00000+0  53320-4 0  9998
2 22219  71.0639  13.3926 0018869 203.9789 156.0457 14.14093189718697
SL-16 R/B               
1 22220U 92076B   26070.75397330 -.00000153  00000+0 -52500-4 0  9990
2 22220  71.0009 184.0257 0010467  92.6138  19.5545 14.16859282722120
COSMOS 2221             
1 22236U 92080A   26070.84432937  .00002210  00000+0  19341-3 0  9994
2 22236  82.5012 277.0167 0014236 179.6150 180.5086 14.96209562781110
SL-16 R/B               
1 22285U 92093B   26070.93027462 -.00000168  00000+0 -61415-4 0  9997
2 22285  71.0242 359.5625 0006384 291.3355  68.7086 14.15447288713472
COSMOS 2228             
1 22286U 92094A   26070.92609471  .00002832  00000+0  24211-3 0  9994
2 22286  82.5159 235.1687 0016700 296.6039  63.3472 14.97202441776394
SL-16 R/B               
1 22566U 93016B   26070.82956288  .00000016  00000+0  32629-4 0  9995
2 22566  71.0077 210.6861 0011948 311.1602  48.8489 14.15309235702470
